OBJECT_NAME,OBJECT_ID,EPOCH,MEAN_MOTION,ECCENTRICITY,INCLINATION,RA_OF_ASC_NODE,ARG_OF_PERICENTER,MEAN_ANOMALY,EPHEMERIS_TYPE,CLASSIFICATION_TYPE,NORAD_CAT_ID,ELEMENT_SET_NO,REV_AT_EPOCH,BSTAR,MEAN_MOTION_DOT,MEAN_MOTION_DDOT
ASTRA 2G,2014-089A,2026-07-20T11:33:07.405344,1.00271460,.00045831,0.0596,38.2586,39.5952,61.8447,0,U,40364,999,4230,0,.148E-5,0
FENGYUN 2G,2014-090A,2026-07-19T15:21:36.356832,1.00279249,.00039431,5.7192,72.4242,173.6464,21.2039,0,U,40367,999,4232,0,-.309E-5,0
MUOS-3,2015-002A,2026-07-20T07:55:20.588160,1.00273251,.00539236,4.5827,43.6407,177.0283,180.7644,0,U,40374,999,4191,0,-.133E-5,0
INMARSAT 5-F2,2015-005A,2026-07-20T11:09:24.679008,1.00272245,.00006868,0.0198,58.5167,61.5436,290.5338,0,U,40384,999,4132,0,-.287E-5,0
ABS-3A,2015-010A,2026-07-20T07:58:57.740736,1.00273635,.00016157,0.0116,47.9466,22.6404,344.3069,0,U,40424,999,4170,0,-.28E-6,0
EUTELSAT 115 WEST B,2015-010B,2026-07-20T10:52:18.818112,1.00274115,.00001875,0.0061,165.1460,276.8676,264.3881,0,U,40425,999,4171,0,-.27E-6,0
EXPRESS-AM7,2015-012A,2026-07-20T11:36:29.582208,1.00273570,.00029759,0.0199,79.1926,45.2971,27.8704,0,U,40505,999,4134,0,.149E-5,0
BEIDOU-3S IGSO-1S,2015-019A,2026-07-02T19:12:21.705408,1.00680073,.00768606,49.1798,295.2769,219.1125,144.2493,0,U,40549,999,4123,0,-.19E-5,0
THOR 7,2015-022A,2026-07-20T07:59:35.181312,1.00270326,.0002715,0.0109,281.3086,194.7373,301.3094,0,U,40613,999,4114,0,-.1E-6,0
TURKMENALEM52E/MONACOSAT,2015-023A,2026-07-20T11:39:59.247360,1.00273924,.00028678,0.0444,87.2744,37.2293,40.7671,0,U,40617,999,4118,0,.102E-5,0
DIRECTV 15,2015-026A,2026-07-20T13:03:58.816800,1.00272555,.00004111,0.0200,78.9838,345.6624,326.7801,0,U,40663,999,4079,0,-.104E-5,0
SKY MEXICO-1,2015-026B,2026-07-20T11:02:40.325280,1.00271139,.000262,0.0368,236.2260,257.1121,251.7662,0,U,40664,999,4078,0,-.236E-5,0
METEOSAT-11 (MSG-4),2015-034A,2026-07-20T06:19:48.504576,1.00273442,.00020409,3.2812,70.8951,355.2226,336.1421,0,U,40732,999,754,0,.58E-6,0
STAR ONE C4,2015-034B,2026-07-20T11:05:10.084992,1.00273164,.00016862,0.0464,295.7482,150.3769,308.3933,0,U,40733,999,4034,0,-.266E-5,0
WGS F7 (USA 263),2015-036A,2026-07-20T12:39:38.831328,1.00271761,.00001236,0.0159,53.4530,94.1255,155.6337,0,U,40746,999,4020,0,.16E-6,0
INTELSAT 34 (IS-34),2015-039A,2026-07-20T11:09:17.190720,1.00271921,.00007292,0.0124,344.1589,39.4487,26.4638,0,U,40874,999,3996,0,-.287E-5,0
EUTELSAT 8 WEST B,2015-039B,2026-07-20T09:40:10.534944,1.00271437,.00037509,0.0628,359.7439,114.3089,321.1685,0,U,40875,999,3999,0,-.67E-6,0
GSAT-6,2015-041A,2026-07-20T10:06:00.556992,1.00272430,.00029289,2.0018,82.1717,34.1986,55.8480,0,U,40880,999,3993,0,-.163E-5,0
INMARSAT 5-F3,2015-042A,2026-07-20T13:21:38.454048,1.00272593,.00004844,0.0187,60.5296,99.1851,158.6127,0,U,40882,999,3990,0,.49E-6,0
MUOS-4,2015-044A,2026-07-20T04:55:44.237568,1.00271954,.00565099,4.3908,42.4231,3.7327,40.7392,0,U,40887,999,3989,0,-.97E-6,0
TJS-1,2015-046A,2026-07-20T13:11:38.622912,1.00271435,.00052274,0.4073,84.7664,21.3326,185.1555,0,U,40892,999,3990,0,-.157E-5,0
EXPRESS-AM8,2015-048A,2026-07-20T09:38:25.702368,1.00271434,.00002861,0.0157,316.2182,27.7376,84.8208,0,U,40895,999,3967,0,-.113E-5,0
BEIDOU-3S IGSO-2S,2015-053A,2026-07-20T15:16:39.872640,1.00252378,.00660687,49.1684,258.3805,193.6741,168.4716,0,U,40938,999,3969,0,-.104E-5,0
SKY MUSTER 1 (NBN1A),2015-054A,2026-07-20T14:46:08.780160,1.00271861,.00017125,0.0097,22.6378,93.8497,183.6866,0,U,40940,999,3959,0,-.279E-5,0
ARSAT 2,2015-054B,2026-07-20T11:02:02.883840,1.00272434,.00021972,0.0502,269.6248,196.7997,276.3160,0,U,40941,999,3963,0,-.226E-5,0
MORELOS 3,2015-056A,2026-07-20T12:08:38.594400,1.00271230,.00006333,3.2147,15.9099,161.9333,189.4990,0,U,40946,999,3961,0,-.46E-6,0
APSTAR-9,2015-059A,2026-07-20T13:29:38.862240,1.00270655,.000322,0.0366,61.5862,122.5891,98.5770,0,U,40982,999,3945,0,-.267E-5,0
TURKSAT 4B,2015-060A,2026-07-20T11:39:21.805920,1.00270109,.00021952,0.0374,239.6935,229.1807,54.1955,0,U,40984,999,3943,0,.114E-5,0
ZHONGXING-2C,2015-063A,2026-07-19T05:30:38.488032,1.00288439,.00089545,0.3546,88.5486,107.9621,286.6179,0,U,41021,999,3930,0,-.331E-5,0
GSAT-15,2015-065A,2026-07-20T14:14:14.951040,1.00271913,.00035617,0.1037,263.5712,177.6248,164.2365,0,U,41028,999,3913,0,-.259E-5,0
BADR-7 (ARABSAT-6B),2015-065B,2026-07-20T11:32:22.477344,1.00270875,.00047792,0.0478,234.5090,328.6352,294.1734,0,U,41029,999,3910,0,.143E-5,0
