ASTRA 2G                
1 40364U 14089A   26201.48133571  .00000148  00000+0  00000+0 0  9993
2 40364   0.0596  38.2586 0004583  39.5952  61.8447  1.00271460 42304
FENGYUN 2G              
1 40367U 14090A   26200.64000413 -.00000309  00000+0  00000+0 0  9993
2 40367   5.7192  72.4242 0003943 173.6464  21.2039  1.00279249 42329
MUOS-3                  
1 40374U 15002A   26201.33009940 -.00000133  00000+0  00000+0 0  9991
2 40374   4.5827  43.6407 0053923 177.0283 180.7644  1.00273251 41916
INMARSAT 5-F2           
1 40384U 15005A   26201.46486897 -.00000287  00000+0  00000+0 0  9999
2 40384   0.0198  58.5167 0000686  61.5436 290.5338  1.00272245 41329
ABS-3A                  
1 40424U 15010A   26201.33261274 -.00000028  00000+0  00000+0 0  9999
2 40424   0.0116  47.9466 0001615  22.6404 344.3069  1.00273635 41709
EUTELSAT 115 WEST B     
1 40425U 15010B   26201.45299558 -.00000027  00000+0  00000+0 0  9998
2 40425   0.0061 165.1460 0000187 276.8676 264.3881  1.00274115 41711
EXPRESS-AM7             
1 40505U 15012A   26201.48367572  .00000149  00000+0  00000+0 0  9998
2 40505   0.0199  79.1926 0002975  45.2971  27.8704  1.00273570 41345
BEIDOU-3S IGSO-1S       
1 40549U 15019A   26183.80025122 -.00000190  00000+0  00000+0 0  9997
2 40549  49.1798 295.2769 0076860 219.1125 144.2493  1.00680073 41232
THOR 7                  
1 40613U 15022A   26201.33304608 -.00000010  00000+0  00000+0 0  9992
2 40613   0.0109 281.3086 0002715 194.7373 301.3094  1.00270326 41144
TURKMENALEM52E/MONACOSAT
1 40617U 15023A   26201.48610240  .00000102  00000+0  00000+0 0  9996
2 40617   0.0444  87.2744 0002867  37.2293  40.7671  1.00273924 41180
DIRECTV 15              
1 40663U 15026A   26201.54443075 -.00000104  00000+0  00000+0 0  9990
2 40663   0.0200  78.9838 0000411 345.6624 326.7801  1.00272555 40796
SKY MEXICO-1            
1 40664U 15026B   26201.46018895 -.00000236  00000+0  00000+0 0  9996
2 40664   0.0368 236.2260 0002620 257.1121 251.7662  1.00271139 40781
METEOSAT-11 (MSG-4)     
1 40732U 15034A   26201.26375584  .00000058  00000+0  00000+0 0  9991
2 40732   3.2812  70.8951 0002040 355.2226 336.1421  1.00273442  7544
STAR ONE C4             
1 40733U 15034B   26201.46192228 -.00000266  00000+0  00000+0 0  9998
2 40733   0.0464 295.7482 0001686 150.3769 308.3933  1.00273164 40346
WGS F7 (USA 263)        
1 40746U 15036A   26201.52753277  .00000016  00000+0  00000+0 0  9990
2 40746   0.0159  53.4530 0000123  94.1255 155.6337  1.00271761 40201
INTELSAT 34 (IS-34)     
1 40874U 15039A   26201.46478230 -.00000287  00000+0  00000+0 0  9992
2 40874   0.0124 344.1589 0000729  39.4487  26.4638  1.00271921 39968
EUTELSAT 8 WEST B       
1 40875U 15039B   26201.40289971 -.00000067  00000+0  00000+0 0  9995
2 40875   0.0628 359.7439 0003750 114.3089 321.1685  1.00271437 39994
GSAT-6                  
1 40880U 15041A   26201.42083978 -.00000163  00000+0  00000+0 0  9992
2 40880   2.0018  82.1717 0002928  34.1986  55.8480  1.00272430 39934
INMARSAT 5-F3           
1 40882U 15042A   26201.55669507  .00000049  00000+0  00000+0 0  9999
2 40882   0.0187  60.5296 0000484  99.1851 158.6127  1.00272593 39907
MUOS-4                  
1 40887U 15044A   26201.20537312 -.00000097  00000+0  00000+0 0  9990
2 40887   4.3908  42.4231 0056509   3.7327  40.7392  1.00271954 39899
TJS-1                   
1 40892U 15046A   26201.54975258 -.00000157  00000+0  00000+0 0  9997
2 40892   0.4073  84.7664 0005227  21.3326 185.1555  1.00271435 39901
EXPRESS-AM8             
1 40895U 15048A   26201.40168637 -.00000113  00000+0  00000+0 0  9994
2 40895   0.0157 316.2182 0000286  27.7376  84.8208  1.00271434 39679
BEIDOU-3S IGSO-2S       
1 40938U 15053A   26201.63657260 -.00000104  00000+0  00000+0 0  9998
2 40938  49.1684 258.3805 0066068 193.6741 168.4716  1.00252378 39694
SKY MUSTER 1 (NBN1A)    
1 40940U 15054A   26201.61537940 -.00000279  00000+0  00000+0 0  9995
2 40940   0.0097  22.6378 0001712  93.8497 183.6866  1.00271861 39594
ARSAT 2                 
1 40941U 15054B   26201.45975560 -.00000226  00000+0  00000+0 0  9994
2 40941   0.0502 269.6248 0002197 196.7997 276.3160  1.00272434 39630
MORELOS 3               
1 40946U 15056A   26201.50600225 -.00000046  00000+0  00000+0 0  9990
2 40946   3.2147  15.9099 0000633 161.9333 189.4990  1.00271230 39618
APSTAR-9                
1 40982U 15059A   26201.56225535 -.00000267  00000+0  00000+0 0  9991
2 40982   0.0366  61.5862 0003220 122.5891  98.5770  1.00270655 39456
TURKSAT 4B              
1 40984U 15060A   26201.48566905  .00000114  00000+0  00000+0 0  9995
2 40984   0.0374 239.6935 0002195 229.1807  54.1955  1.00270109 39432
ZHONGXING-2C            
1 41021U 15063A   26200.22961213 -.00000331  00000+0  00000+0 0  9995
2 41021   0.3546  88.5486 0008954 107.9621 286.6179  1.00288439 39308
GSAT-15                 
1 41028U 15065A   26201.59322860 -.00000259  00000+0  00000+0 0  9993
2 41028   0.1037 263.5712 0003561 177.6248 164.2365  1.00271913 39131
BADR-7 (ARABSAT-6B)     
1 41029U 15065B   26201.48081571  .00000143  00000+0  00000+0 0  9994
2 41029   0.0478 234.5090 0004779 328.6352 294.1734  1.00270875 39109
